GLOBALSTAR M067 [+]     
1 32263U 07048A   23303.82624123 -.00000098  00000+0 -67923-5 0  9994
2 32263  51.9744 337.9467 0001070 137.6926  33.7829 12.40633140735831
GLOBALSTAR M070 [+]     
1 32264U 07048B   23303.94362169 -.00000066  00000+0  21275-3 0  9999
2 32264  51.9726 141.7959 0000692 107.2169  39.5571 12.62281310738495
GLOBALSTAR M066 [+]     
1 32265U 07048C   23303.90670537 -.00000039  00000+0  36289-3 0  9998
2 32265  51.9700   3.9664 0000646  78.1012  93.0371 12.62275350740754
GLOBALSTAR M068 [-]     
1 32266U 07048D   23303.80377034 -.00000038  00000+0  36519-3 0  9999
2 32266  51.9890 317.0994 0000524 273.2559 257.5854 12.62769655742334
GLOBALSTAR M079 [+]     
1 37188U 10054A   23303.88137359 -.00000075  00000+0  16138-3 0  9996
2 37188  52.0015 151.9935 0001147  84.3926  21.0556 12.62269582601278
GLOBALSTAR M074 [+]     
1 37189U 10054B   23303.90747889 -.00000073  00000+0  17323-3 0  9990
2 37189  51.9993 151.3283 0000959  89.6398  14.9584 12.62271672601953
GLOBALSTAR M076 [+]     
1 37190U 10054C   23303.83467841 -.00000054  00000+0  27653-3 0  9997
2 37190  52.0007 151.6677 0001424 103.5244 269.4696 12.62263136601594
GLOBALSTAR M077 [+]     
1 37191U 10054D   23303.74268683 -.00000110  00000+0 -36973-4 0  9991
2 37191  52.0051 108.6310 0000878 104.5244 269.3477 12.62268018601953
